COSMOS 2251 DEB         
1 40223U 93036BVC 17345.04224833  .00001055  00000-0  33079-3 0  9994
2 40223  73.9665 225.3846 0041621 328.3053  99.1271 14.41363012326372
